CCSDS_OMM_VERS = 2.0
CREATION_DATE  = 
ORIGINATOR     = 

OBJECT_NAME    = HULIANWANG DIGUI-105
OBJECT_ID      = 2025-285A
CENTER_NAME    = EARTH
REF_FRAME      = TEME
TIME_SYSTEM    = UTC
MEAN_ELEMENT_THEORY = SGP/SGP4

EPOCH          = 2025-12-12T21:59:21.438240
MEAN_MOTION    = 14.03715291
ECCENTRICITY   = .0007944
INCLINATION    = 50.0050
RA_OF_ASC_NODE = 116.5531
ARG_OF_PERICENTER = 283.5948
MEAN_ANOMALY   = 76.4071

EPHEMERIS_TYPE = 0
CLASSIFICATION_TYPE = U
NORAD_CAT_ID   = 66915
ELEMENT_SET_NO = 999
REV_AT_EPOCH   = 93
BSTAR          = .19715928E-3
MEAN_MOTION_DOT = .161E-5
MEAN_MOTION_DDOT = 0

CCSDS_OMM_VERS = 2.0
CREATION_DATE  = 
ORIGINATOR     = 

OBJECT_NAME    = HULIANWANG DIGUI-106
OBJECT_ID      = 2025-285B
CENTER_NAME    = EARTH
REF_FRAME      = TEME
TIME_SYSTEM    = UTC
MEAN_ELEMENT_THEORY = SGP/SGP4

EPOCH          = 2025-12-13T08:11:47.825664
MEAN_MOTION    = 14.05208738
ECCENTRICITY   = .00066861
INCLINATION    = 50.0084
RA_OF_ASC_NODE = 114.8057
ARG_OF_PERICENTER = 277.4168
MEAN_ANOMALY   = 82.5977

EPHEMERIS_TYPE = 0
CLASSIFICATION_TYPE = U
NORAD_CAT_ID   = 66916
ELEMENT_SET_NO = 999
REV_AT_EPOCH   = 99
BSTAR          = .18032653E-3
MEAN_MOTION_DOT = .141E-5
MEAN_MOTION_DDOT = 0

CCSDS_OMM_VERS = 2.0
CREATION_DATE  = 
ORIGINATOR     = 

OBJECT_NAME    = HULIANWANG DIGUI-107
OBJECT_ID      = 2025-285C
CENTER_NAME    = EARTH
REF_FRAME      = TEME
TIME_SYSTEM    = UTC
MEAN_ELEMENT_THEORY = SGP/SGP4

EPOCH          = 2025-12-13T08:11:16.578240
MEAN_MOTION    = 14.05580636
ECCENTRICITY   = .00075413
INCLINATION    = 50.0017
RA_OF_ASC_NODE = 114.7991
ARG_OF_PERICENTER = 287.0430
MEAN_ANOMALY   = 72.9649

EPHEMERIS_TYPE = 0
CLASSIFICATION_TYPE = U
NORAD_CAT_ID   = 66917
ELEMENT_SET_NO = 999
REV_AT_EPOCH   = 99
BSTAR          = .12937595E-4
MEAN_MOTION_DOT = -.131E-5
MEAN_MOTION_DDOT = 0

CCSDS_OMM_VERS = 2.0
CREATION_DATE  = 
ORIGINATOR     = 

OBJECT_NAME    = HULIANWANG DIGUI-108
OBJECT_ID      = 2025-285D
CENTER_NAME    = EARTH
REF_FRAME      = TEME
TIME_SYSTEM    = UTC
MEAN_ELEMENT_THEORY = SGP/SGP4

EPOCH          = 2025-12-13T08:10:24.066912
MEAN_MOTION    = 14.05705678
ECCENTRICITY   = .00064788
INCLINATION    = 50.0037
RA_OF_ASC_NODE = 114.7985
ARG_OF_PERICENTER = 282.3057
MEAN_ANOMALY   = 77.7123

EPHEMERIS_TYPE = 0
CLASSIFICATION_TYPE = U
NORAD_CAT_ID   = 66918
ELEMENT_SET_NO = 999
REV_AT_EPOCH   = 99
BSTAR          = .18112956E-3
MEAN_MOTION_DOT = .145E-5
MEAN_MOTION_DDOT = 0

CCSDS_OMM_VERS = 2.0
CREATION_DATE  = 
ORIGINATOR     = 

OBJECT_NAME    = HULIANWANG DIGUI-109
OBJECT_ID      = 2025-285E
CENTER_NAME    = EARTH
REF_FRAME      = TEME
TIME_SYSTEM    = UTC
MEAN_ELEMENT_THEORY = SGP/SGP4

EPOCH          = 2025-12-13T08:10:17.549760
MEAN_MOTION    = 14.05716761
ECCENTRICITY   = .00078476
INCLINATION    = 50.0063
RA_OF_ASC_NODE = 114.8017
ARG_OF_PERICENTER = 293.6212
MEAN_ANOMALY   = 66.3869

EPHEMERIS_TYPE = 0
CLASSIFICATION_TYPE = U
NORAD_CAT_ID   = 66919
ELEMENT_SET_NO = 999
REV_AT_EPOCH   = 99
BSTAR          = .257074E-6
MEAN_MOTION_DOT = -.152E-5
MEAN_MOTION_DDOT = 0

CCSDS_OMM_VERS = 2.0
CREATION_DATE  = 
ORIGINATOR     = 

OBJECT_NAME    = HULIANWANG DIGUI-110
OBJECT_ID      = 2025-285F
CENTER_NAME    = EARTH
REF_FRAME      = TEME
TIME_SYSTEM    = UTC
MEAN_ELEMENT_THEORY = SGP/SGP4

EPOCH          = 2025-12-13T08:09:21.243744
MEAN_MOTION    = 14.05851591
ECCENTRICITY   = .00058407
INCLINATION    = 50.0096
RA_OF_ASC_NODE = 114.8022
ARG_OF_PERICENTER = 290.6406
MEAN_ANOMALY   = 69.3873

EPHEMERIS_TYPE = 0
CLASSIFICATION_TYPE = U
NORAD_CAT_ID   = 66920
ELEMENT_SET_NO = 999
REV_AT_EPOCH   = 99
BSTAR          = .18252503E-3
MEAN_MOTION_DOT = .148E-5
MEAN_MOTION_DDOT = 0

CCSDS_OMM_VERS = 2.0
CREATION_DATE  = 
ORIGINATOR     = 

OBJECT_NAME    = HULIANWANG DIGUI-111
OBJECT_ID      = 2025-285G
CENTER_NAME    = EARTH
REF_FRAME      = TEME
TIME_SYSTEM    = UTC
MEAN_ELEMENT_THEORY = SGP/SGP4

EPOCH          = 2025-12-13T08:09:06.540192
MEAN_MOTION    = 14.05885284
ECCENTRICITY   = .00069883
INCLINATION    = 50.0110
RA_OF_ASC_NODE = 114.8033
ARG_OF_PERICENTER = 296.9935
MEAN_ANOMALY   = 63.0257

EPHEMERIS_TYPE = 0
CLASSIFICATION_TYPE = U
NORAD_CAT_ID   = 66921
ELEMENT_SET_NO = 999
REV_AT_EPOCH   = 99
BSTAR          = .18661378E-3
MEAN_MOTION_DOT = .155E-5
MEAN_MOTION_DDOT = 0

CCSDS_OMM_VERS = 2.0
CREATION_DATE  = 
ORIGINATOR     = 

OBJECT_NAME    = HULIANWANG DIGUI-112
OBJECT_ID      = 2025-285H
CENTER_NAME    = EARTH
REF_FRAME      = TEME
TIME_SYSTEM    = UTC
MEAN_ELEMENT_THEORY = SGP/SGP4

EPOCH          = 2025-12-12T21:54:11.608704
MEAN_MOTION    = 14.06000264
ECCENTRICITY   = .00069381
INCLINATION    = 50.0083
RA_OF_ASC_NODE = 116.5390
ARG_OF_PERICENTER = 301.8744
MEAN_ANOMALY   = 58.1486

EPHEMERIS_TYPE = 0
CLASSIFICATION_TYPE = U
NORAD_CAT_ID   = 66922
ELEMENT_SET_NO = 999
REV_AT_EPOCH   = 93
BSTAR          = .2241994E-5
MEAN_MOTION_DOT = -.149E-5
MEAN_MOTION_DDOT = 0

CCSDS_OMM_VERS = 2.0
CREATION_DATE  = 
ORIGINATOR     = 

OBJECT_NAME    = HULIANWANG DIGUI-113
OBJECT_ID      = 2025-285J
CENTER_NAME    = EARTH
REF_FRAME      = TEME
TIME_SYSTEM    = UTC
MEAN_ELEMENT_THEORY = SGP/SGP4

EPOCH          = 2025-12-13T08:07:52.701024
MEAN_MOTION    = 14.06056837
ECCENTRICITY   = .00054099
INCLINATION    = 50.0082
RA_OF_ASC_NODE = 114.7955
ARG_OF_PERICENTER = 298.2432
MEAN_ANOMALY   = 61.7927

EPHEMERIS_TYPE = 0
CLASSIFICATION_TYPE = U
NORAD_CAT_ID   = 66923
ELEMENT_SET_NO = 999
REV_AT_EPOCH   = 99
BSTAR          = .18934042E-3
MEAN_MOTION_DOT = .16E-5
MEAN_MOTION_DDOT = 0

CCSDS_OMM_VERS = 2.0
CREATION_DATE  = 
ORIGINATOR     = 

OBJECT_NAME    = CZ-8A R/B
OBJECT_ID      = 2025-285K
CENTER_NAME    = EARTH
REF_FRAME      = TEME
TIME_SYSTEM    = UTC
MEAN_ELEMENT_THEORY = SGP/SGP4

EPOCH          = 2025-12-13T01:55:47.341056
MEAN_MOTION    = 14.30502104
ECCENTRICITY   = .01193229
INCLINATION    = 50.0065
RA_OF_ASC_NODE = 114.7043
ARG_OF_PERICENTER = 107.9377
MEAN_ANOMALY   = 253.4589

EPHEMERIS_TYPE = 0
CLASSIFICATION_TYPE = U
NORAD_CAT_ID   = 66924
ELEMENT_SET_NO = 999
REV_AT_EPOCH   = 97
BSTAR          = .9237633E-4
MEAN_MOTION_DOT = .95E-6
MEAN_MOTION_DDOT = 0

CCSDS_OMM_VERS = 2.0
CREATION_DATE  = 
ORIGINATOR     = 

OBJECT_NAME    = STARLINK-35945
OBJECT_ID      = 2025-286A
CENTER_NAME    = EARTH
REF_FRAME      = TEME
TIME_SYSTEM    = UTC
MEAN_ELEMENT_THEORY = SGP/SGP4

EPOCH          = 2025-12-13T06:00:02.000160
MEAN_MOTION    = 15.96137073
ECCENTRICITY   = .00008742
INCLINATION    = 53.1575
RA_OF_ASC_NODE = 48.1550
ARG_OF_PERICENTER = 87.0373
MEAN_ANOMALY   = 76.8846

EPHEMERIS_TYPE = 0
CLASSIFICATION_TYPE = U
NORAD_CAT_ID   = 66925
ELEMENT_SET_NO = 999
REV_AT_EPOCH   = 207
BSTAR          = -.28047629E-2
MEAN_MOTION_DOT = -.118656E-1
MEAN_MOTION_DDOT = .43493327E-3

CCSDS_OMM_VERS = 2.0
CREATION_DATE  = 
ORIGINATOR     = 

OBJECT_NAME    = STARLINK-35942
OBJECT_ID      = 2025-286B
CENTER_NAME    = EARTH
REF_FRAME      = TEME
TIME_SYSTEM    = UTC
MEAN_ELEMENT_THEORY = SGP/SGP4

EPOCH          = 2025-12-13T06:00:02.000160
MEAN_MOTION    = 15.96314786
ECCENTRICITY   = .00008999
INCLINATION    = 53.1575
RA_OF_ASC_NODE = 48.1489
ARG_OF_PERICENTER = 81.5893
MEAN_ANOMALY   = 85.1202

EPHEMERIS_TYPE = 0
CLASSIFICATION_TYPE = U
NORAD_CAT_ID   = 66926
ELEMENT_SET_NO = 999
REV_AT_EPOCH   = 207
BSTAR          = -.28175724E-2
MEAN_MOTION_DOT = -.1203402E-1
MEAN_MOTION_DDOT = .44703166E-3

CCSDS_OMM_VERS = 2.0
CREATION_DATE  = 
ORIGINATOR     = 

OBJECT_NAME    = STARLINK-35943
OBJECT_ID      = 2025-286C
CENTER_NAME    = EARTH
REF_FRAME      = TEME
TIME_SYSTEM    = UTC
MEAN_ELEMENT_THEORY = SGP/SGP4

EPOCH          = 2025-12-13T06:00:02.000160
MEAN_MOTION    = 15.96392365
ECCENTRICITY   = .00009707
INCLINATION    = 53.1576
RA_OF_ASC_NODE = 48.1466
ARG_OF_PERICENTER = 80.7514
MEAN_ANOMALY   = 87.1815

EPHEMERIS_TYPE = 0
CLASSIFICATION_TYPE = U
NORAD_CAT_ID   = 66927
ELEMENT_SET_NO = 999
REV_AT_EPOCH   = 207
BSTAR          = -.28183398E-2
MEAN_MOTION_DOT = -.120879E-1
MEAN_MOTION_DDOT = .45103585E-3

CCSDS_OMM_VERS = 2.0
CREATION_DATE  = 
ORIGINATOR     = 

OBJECT_NAME    = STARLINK-35944
OBJECT_ID      = 2025-286D
CENTER_NAME    = EARTH
REF_FRAME      = TEME
TIME_SYSTEM    = UTC
MEAN_ELEMENT_THEORY = SGP/SGP4

EPOCH          = 2025-12-13T06:00:02.000160
MEAN_MOTION    = 15.96241473
ECCENTRICITY   = .00008912
INCLINATION    = 53.1575
RA_OF_ASC_NODE = 48.1516
ARG_OF_PERICENTER = 79.5303
MEAN_ANOMALY   = 85.9197

EPHEMERIS_TYPE = 0
CLASSIFICATION_TYPE = U
NORAD_CAT_ID   = 66928
ELEMENT_SET_NO = 999
REV_AT_EPOCH   = 207
BSTAR          = -.28232946E-2
MEAN_MOTION_DOT = -.1201055E-1
MEAN_MOTION_DDOT = .44511324E-3

CCSDS_OMM_VERS = 2.0
CREATION_DATE  = 
ORIGINATOR     = 

OBJECT_NAME    = STARLINK-36169
OBJECT_ID      = 2025-286E
CENTER_NAME    = EARTH
REF_FRAME      = TEME
TIME_SYSTEM    = UTC
MEAN_ELEMENT_THEORY = SGP/SGP4

EPOCH          = 2025-12-13T06:00:02.000160
MEAN_MOTION    = 15.96472414
ECCENTRICITY   = .00010428
INCLINATION    = 53.1574
RA_OF_ASC_NODE = 48.1436
ARG_OF_PERICENTER = 71.3779
MEAN_ANOMALY   = 97.8988

EPHEMERIS_TYPE = 0
CLASSIFICATION_TYPE = U
NORAD_CAT_ID   = 66929
ELEMENT_SET_NO = 999
REV_AT_EPOCH   = 207
BSTAR          = -.28069749E-2
MEAN_MOTION_DOT = -.1209204E-1
MEAN_MOTION_DDOT = .45168937E-3

